NORAD_CAT_ID,OBJECT_NAME,OBJECT_TYPE,EPOCH,MEAN_MOTION,ECCENTRICITY,INCLINATION,RA_OF_ASC_NODE,ARG_OF_PERICENTER,MEAN_ANOMALY,BSTAR,MEAN_MOTION_DOT,MEAN_MOTION_DDOT,TLE_LINE0,TLE_LINE1,TLE_LINE2,SEMIMAJOR_AXIS,PERIOD,APOGEE,PERIGEE,DECAYED
49442.0,STARLINK-3098,PAYLOAD,2023-11-06 15:37:33,15.08841323,0.0001076,53.2158,83.0492,88.6168,271.4948,0.0001479,2.067e-05,0.0,0 STARLINK-3098,1 49442U 21104AL  23310.65108199  .00002067  00000-0  14790-3 0  9998,2 49442  53.2158  83.0492 0001076  88.6168 271.4948 15.08841323111065,6917.876,95.437,540.486,538.997,0.0
49442.0,STARLINK-3098,PAYLOAD,2023-11-07 09:06:45,15.08871161,0.000121,53.2147,79.7797,92.4391,267.674,0.00057584,8.896e-05,0.0,0 STARLINK-3098,1 49442U 21104AL  23311.37969664  .00008896  00000-0  57584-3 0  9994,2 49442  53.2147  79.7797 0001210  92.4391 267.6740 15.08871161111176,6917.785,95.436,540.487,538.813,0.0
49442.0,STARLINK-3098,PAYLOAD,2023-11-07 13:52:56,15.08824389,0.0001525,53.2152,78.8862,73.3426,286.7733,-0.00019279,-3.354e-05,0.0,0 STARLINK-3098,1 49442U 21104AL  23311.57843642 -.00003354  00000-0 -19279-3 0  9998,2 49442  53.2152  78.8862 0001525  73.3426 286.7733 15.08824389110129,6917.928,95.439,540.848,538.738,0.0
49442.0,STARLINK-3098,PAYLOAD,2023-11-07 15:28:19,15.08825565,0.000149,53.2168,78.5896,85.9697,274.1465,-0.00017884,-3.132e-05,0.0,0 STARLINK-3098,1 49442U 21104AL  23311.64467513 -.00003132  00000-0 -17884-3 0  9999,2 49442  53.2168  78.5896 0001490  85.9697 274.1465 15.08825565111211,6917.925,95.438,540.82,538.759,0.0
49442.0,STARLINK-3098,PAYLOAD,2023-11-08 01:00:40,15.08808989,0.0001449,53.2171,76.804,89.4701,270.6457,-0.00062421,-0.000102,0.0,0 STARLINK-3098,1 49442U 21104AL  23312.04212965 -.00010200  00000-0 -62421-3 0  9994,2 49442  53.2171  76.8040 0001449  89.4701 270.6457 15.08808989111275,6917.975,95.44,540.843,538.838,0.0
49442.0,STARLINK-3098,PAYLOAD,2023-11-08 13:43:45,15.08830276,0.0001309,53.2166,74.4242,96.5419,263.5722,-0.00016058,-2.842e-05,0.0,0 STARLINK-3098,1 49442U 21104AL  23312.57204999 -.00002842  00000-0 -16058-3 0  9998,2 49442  53.2166  74.4242 0001309  96.5419 263.5722 15.08830276110276,6917.91,95.438,540.681,538.87,0.0
49442.0,STARLINK-3098,PAYLOAD,2023-11-08 15:19:08,15.08818255,0.0001226,53.2168,74.1269,82.8396,277.2735,0.00013179,1.809e-05,0.0,0 STARLINK-3098,1 49442U 21104AL  23312.63829675  .00001809  00000-0  13179-3 0  9990,2 49442  53.2168  74.1269 0001226  82.8396 277.2735 15.08818255111364,6917.947,95.439,540.66,538.964,0.0
49442.0,STARLINK-3098,PAYLOAD,2023-11-09 00:51:27,15.08835489,0.0001133,53.2164,72.3439,94.5452,265.5669,-8.4546e-05,-1.633e-05,0.0,0 STARLINK-3098,1 49442U 21104AL  23313.03573095 -.00001633  00000-0 -84546-4 0  9991,2 49442  53.2164  72.3439 0001133  94.5452 265.5669 15.08835489111420,6917.894,95.438,540.543,538.975,0.0
49442.0,STARLINK-3098,PAYLOAD,2023-11-09 13:34:32,15.08837398,0.0001301,53.2164,69.966,83.4698,276.6443,0.00058828,9.086e-05,0.0,0 STARLINK-3098,1 49442U 21104AL  23313.56565350  .00009086  00000-0  58828-3 0  9995,2 49442  53.2164  69.9660 0001301  83.4698 276.6443 15.08837398110427,6917.888,95.438,540.653,538.853,0.0
49442.0,STARLINK-3098,PAYLOAD,2023-11-10 11:49:56,15.08832954,0.0001336,53.2168,65.8028,85.0775,275.0369,3.5219e-05,2.73e-06,0.0,0 STARLINK-3098,1 49442U 21104AL  23314.49301993  .00000273  00000-0  35219-4 0  9998,2 49442  53.2168  65.8028 0001336  85.0775 275.0369 15.08832954111644,6917.902,95.438,540.691,538.843,0.0
49442.0,STARLINK-3098,PAYLOAD,2023-11-10 13:25:19,15.08840362,0.0001463,53.2171,65.5036,85.0015,275.1144,0.00010547,1.391e-05,0.0,0 STARLINK-3098,1 49442U 21104AL  23314.55925632  .00001391  00000-0  10547-3 0  9995,2 49442  53.2171  65.5036 0001463  85.0015 275.1144 15.08840362110577,6917.879,95.438,540.756,538.732,0.0
49442.0,STARLINK-3098,PAYLOAD,2023-11-10 15:00:42,15.08844442,0.0001465,53.217,65.2067,83.9318,276.1841,0.00017216,2.453e-05,0.0,0 STARLINK-3098,1 49442U 21104AL  23314.62549464  .00002453  00000-0  17216-3 0  9998,2 49442  53.2170  65.2067 0001465  83.9318 276.1841 15.08844442111661,6917.867,95.437,540.745,538.718,0.0
49442.0,STARLINK-3098,PAYLOAD,2023-11-11 13:16:06,15.08845923,0.0001605,53.2168,61.0465,74.7215,285.3954,1.7835e-05,-4e-08,0.0,0 STARLINK-3098,1 49442U 21104AL  23315.55285333 -.00000004  00000-0  17835-4 0  9992,2 49442  53.2168  61.0465 0001605  74.7215 285.3954 15.08845923110722,6917.862,95.437,540.838,538.617,0.0
49442.0,STARLINK-3098,PAYLOAD,2023-11-11 16:26:52,15.0885106,0.0001606,53.2169,60.4509,75.3151,284.8019,7.6777e-05,9.34e-06,0.0,0 STARLINK-3098,1 49442U 21104AL  23315.68533001  .00000934  00000-0  76777-4 0  9995,2 49442  53.2169  60.4509 0001606  75.3151 284.8019 15.08851060111829,6917.847,95.437,540.823,538.601,0.0
49442.0,STARLINK-3098,PAYLOAD,2023-11-12 00:23:48,15.08840745,0.0001492,53.2174,58.9613,87.388,272.7283,-2.7303e-05,-7.22e-06,0.0,0 STARLINK-3098,1 49442U 21104AL  23316.01653288 -.00000722  00000-0 -27303-4 0  9991,2 49442  53.2174  58.9613 0001492  87.3880 272.7283 15.08840745111870,6917.878,95.438,540.775,538.711,0.0
49442.0,STARLINK-3098,PAYLOAD,2023-11-12 13:06:53,15.0884058,0.0001707,53.2181,56.5822,90.5029,269.6159,0.00012429,1.691e-05,0.0,0 STARLINK-3098,1 49442U 21104AL  23316.54645582  .00001691  00000-0  12429-3 0  9993,2 49442  53.2181  56.5822 0001707  90.5029 269.6159 15.08840580110877,6917.879,95.438,540.924,538.563,0.0
49442.0,STARLINK-3098,PAYLOAD,2023-11-12 16:17:39,15.08849952,0.0001721,53.219,55.9858,93.967,266.1519,9.2566e-05,1.186e-05,0.0,0 STARLINK-3098,1 49442U 21104AL  23316.67892931  .00001186  00000-0  92566-4 0  9999,2 49442  53.2190  55.9858 0001721  93.9670 266.1519 15.08849952110890,6917.85,95.437,540.906,538.524,0.0
49442.0,STARLINK-3098,PAYLOAD,2023-11-13 12:57:39,15.0885533,0.000179,53.2178,52.1235,90.1043,270.0155,0.00019727,2.854e-05,0.0,0 STARLINK-3098,1 49442U 21104AL  23317.54004477  .00002854  00000-0  19727-3 0  9996,2 49442  53.2178  52.1235 0001790  90.1043 270.0155 15.08855330111026,6917.834,95.437,540.937,538.46,0.0
49442.0,STARLINK-3098,PAYLOAD,2023-11-14 11:13:04,15.08838041,0.000162,53.2171,47.9596,99.9083,260.2092,6.0655e-06,-1.92e-06,0.0,0 STARLINK-3098,1 49442U 21104AL  23318.46741247 -.00000192  00000-0  60655-5 0  9993,2 49442  53.2171  47.9596 0001620  99.9083 260.2092 15.08838041112240,6917.886,95.438,540.872,538.631,0.0
49442.0,STARLINK-3098,PAYLOAD,2023-11-14 12:48:27,15.08837754,0.0001638,53.2171,47.6638,95.0808,265.0371,-3.9402e-05,-9.15e-06,0.0,0 STARLINK-3098,1 49442U 21104AL  23318.53365284 -.00000915  00000-0 -39402-4 0  9993,2 49442  53.2171  47.6638 0001638  95.0808 265.0371 15.08837754111179,6917.887,95.438,540.885,538.619,0.0
49442.0,STARLINK-3098,PAYLOAD,2023-11-15 12:39:14,15.08846643,0.0001534,53.2174,43.203,95.4796,264.6371,6.2139e-05,7.01e-06,0.0,0 STARLINK-3098,1 49442U 21104AL  23319.52724896  .00000701  00000-0  62139-4 0  9995,2 49442  53.2174  43.2030 0001534  95.4796 264.6371 15.08846643111324,6917.86,95.437,540.786,538.664,0.0
49442.0,STARLINK-3098,PAYLOAD,2023-11-15 22:11:33,15.08841136,0.0001523,53.2172,41.4193,94.9049,265.2117,-3.2291e-06,-3.39e-06,0.0,0 STARLINK-3098,1 49442U 21104AL  23319.92469195 -.00000339  00000-0 -32291-5 0  9993,2 49442  53.2172  41.4193 0001523  94.9049 265.2117 15.08841136111388,6917.877,95.437,540.796,538.688,0.0
49442.0,STARLINK-3098,PAYLOAD,2023-11-16 06:08:29,15.08832048,0.0001557,53.2171,39.9331,97.6764,262.4405,9.0284e-05,1.149e-05,0.0,0 STARLINK-3098,1 49442U 21104AL  23320.25589815  .00001149  00000-0  90284-4 0  9996,2 49442  53.2171  39.9331 0001557  97.6764 262.4405 15.08832048112511,6917.905,95.438,540.847,538.693,0.0
49442.0,STARLINK-3098,PAYLOAD,2023-11-16 09:19:15,15.08834934,0.0001513,53.2172,39.3385,98.0839,262.0325,4.3777e-05,4.09e-06,0.0,0 STARLINK-3098,1 49442U 21104AL  23320.38837692  .00000409  00000-0  43777-4 0  9992,2 49442  53.2172  39.3385 0001513  98.0839 262.0325 15.08834934111450,6917.896,95.438,540.808,538.714,0.0
49442.0,STARLINK-3098,PAYLOAD,2023-11-17 04:23:53,15.08845846,0.0001957,53.2189,35.7707,103.092,257.0291,-0.00012761,-2.319e-05,0.0,0 STARLINK-3098,1 49442U 21104AL  23321.18325397 -.00002319  00000-0 -12761-3 0  9997,2 49442  53.2189  35.7707 0001957 103.0920 257.0291 15.08845846112659,6917.863,95.437,541.081,538.374,0.0
49442.0,STARLINK-3098,PAYLOAD,2023-11-17 12:20:48,15.08845316,0.0001574,53.2197,34.2845,103.0459,257.0709,9.7155e-05,1.259e-05,0.0,0 STARLINK-3098,1 49442U 21104AL  23321.51445432  .00001259  00000-0  97155-4 0  9998,2 49442  53.2197  34.2845 0001574 103.0459 257.0709 15.08845316111629,6917.864,95.437,540.818,538.64,0.0
49442.0,STARLINK-3098,PAYLOAD,2023-11-17 21:53:07,15.08843632,0.0001406,53.2191,32.5005,97.3229,262.7923,4.7355e-05,4.66e-06,0.0,0 STARLINK-3098,1 49442U 21104AL  23321.91189583  .00000466  00000-0  47355-4 0  9990,2 49442  53.2191  32.5005 0001406  97.3229 262.7923 15.08843632111682,6917.869,95.437,540.707,538.762,0.0
49442.0,STARLINK-3098,PAYLOAD,2023-11-18 12:11:36,15.08838008,0.0001369,53.219,29.8242,86.4154,273.6994,0.00010318,1.354e-05,0.0,0 STARLINK-3098,1 49442U 21104AL  23322.50806119  .00001354  00000-0  10318-3 0  9992,2 49442  53.2190  29.8242 0001369  86.4154 273.6994 15.08838008112857,6917.886,95.438,540.699,538.804,0.0
49442.0,STARLINK-3098,PAYLOAD,2023-11-18 21:43:55,15.088308,0.0001481,53.2191,28.0409,86.9293,273.1868,0.00018487,2.655e-05,0.0,0 STARLINK-3098,1 49442U 21104AL  23322.90550071  .00002655  00000-0  18487-3 0  9999,2 49442  53.2191  28.0409 0001481  86.9293 273.1868 15.08830800111832,6917.909,95.438,540.798,538.749,0.0
49442.0,STARLINK-3098,PAYLOAD,2023-11-19 12:02:23,15.08838087,0.0001425,53.2188,25.3646,89.3723,270.7433,0.00020216,2.931e-05,0.0,0 STARLINK-3098,1 49442U 21104AL  23323.50165880  .00002931  00000-0  20216-3 0  9996,2 49442  53.2188  25.3646 0001425  89.3723 270.7433 15.08838087111920,6917.886,95.438,540.737,538.765,0.0
